NORAD_CAT_ID,OBJECT_NAME,OBJECT_TYPE,EPOCH,MEAN_MOTION,ECCENTRICITY,INCLINATION,RA_OF_ASC_NODE,ARG_OF_PERICENTER,MEAN_ANOMALY,BSTAR,MEAN_MOTION_DOT,MEAN_MOTION_DDOT,TLE_LINE0,TLE_LINE1,TLE_LINE2,SEMIMAJOR_AXIS,PERIOD,APOGEE,PERIGEE,DECAYED
52353.0,STARLINK-3807,PAYLOAD,2023-10-01 05:27:20,15.08850683,0.0001555,53.2158,236.5594,91.1965,268.9205,0.00069045,0.00010721,0.0,0 STARLINK-3807,1 52353U 22045Y   23274.22732589  .00010721  00000-0  69045-3 0  9995,2 52353  53.2158 236.5594 0001555  91.1965 268.9205 15.08850683 81358,6917.848,95.437,540.788,538.637,0.0
52353.0,STARLINK-3807,PAYLOAD,2023-10-01 14:59:40,15.08846752,0.0001639,53.2153,234.776,92.658,267.46,0.00072431,0.0001126,0.0,0 STARLINK-3807,1 52353U 22045Y   23274.62476891  .00011260  00000-0  72431-3 0  9992,2 52353  53.2153 234.7760 0001639  92.6580 267.4600 15.08846752 81412,6917.86,95.437,540.859,538.591,0.0
52353.0,STARLINK-3807,PAYLOAD,2023-10-01 21:21:12,15.08843152,0.0001771,53.2148,233.588,91.8318,268.2877,0.00038466,5.84e-05,0.0,0 STARLINK-3807,1 52353U 22045Y   23274.88972974  .00005840  00000-0  38466-3 0  9990,2 52353  53.2148 233.5880 0001771  91.8318 268.2877 15.08843152 81453,6917.871,95.437,540.961,538.511,0.0
52353.0,STARLINK-3807,PAYLOAD,2023-10-02 03:42:44,15.08846815,0.0001516,53.2161,232.3979,98.2849,261.8315,0.00039741,6.044e-05,0.0,0 STARLINK-3807,1 52353U 22045Y   23275.15468713  .00006044  00000-0  39741-3 0  9996,2 52353  53.2161 232.3979 0001516  98.2849 261.8315 15.08846815 81490,6917.86,95.437,540.773,538.676,0.0
52353.0,STARLINK-3807,PAYLOAD,2023-10-02 21:11:59,15.08843854,0.0001572,53.2156,229.1263,101.5838,258.5331,0.00016911,2.405e-05,0.0,0 STARLINK-3807,1 52353U 22045Y   23275.88332808  .00002405  00000-0  16911-3 0  9992,2 52353  53.2156 229.1263 0001572 101.5838 258.5331 15.08843854 81606,6917.869,95.437,540.821,538.646,0.0
52353.0,STARLINK-3807,PAYLOAD,2023-10-03 06:44:18,15.08849895,0.0001521,53.2155,227.3422,104.9564,255.1596,0.00049909,7.666e-05,0.0,0 STARLINK-3807,1 52353U 22045Y   23276.28076525  .00007666  00000-0  49909-3 0  9995,2 52353  53.2155 227.3422 0001521 104.9564 255.1596 15.08849895 81662,6917.85,95.437,540.767,538.663,0.0
52353.0,STARLINK-3807,PAYLOAD,2023-10-04 06:35:05,15.088415,0.0001522,53.2167,222.8805,107.5756,252.5402,0.00025829,3.825e-05,0.0,0 STARLINK-3807,1 52353U 22045Y   23277.27436839  .00003825  00000-0  25829-3 0  9991,2 52353  53.2167 222.8805 0001522 107.5756 252.5402 15.08841500 81812,6917.876,95.437,540.794,538.688,0.0
52353.0,STARLINK-3807,PAYLOAD,2023-10-04 20:53:33,15.08844542,0.0002186,53.2163,220.2061,86.6469,273.4773,0.00025509,3.774e-05,0.0,0 STARLINK-3807,1 52353U 22045Y   23277.87053154  .00003774  00000-0  25509-3 0  9990,2 52353  53.2163 220.2061 0002186  86.6469 273.4773 15.08844542 81901,6917.867,95.437,541.244,538.219,0.0
52353.0,STARLINK-3807,PAYLOAD,2023-10-05 12:47:25,15.08841253,0.0001129,53.2163,217.2319,98.5234,261.5886,0.00041844,6.378e-05,0.0,0 STARLINK-3807,1 52353U 22045Y   23278.53292890  .00006378  00000-0  41844-3 0  9999,2 52353  53.2163 217.2319 0001129  98.5234 261.5886 15.08841253 82002,6917.877,95.437,540.523,538.961,0.0
52353.0,STARLINK-3807,PAYLOAD,2023-10-06 12:38:12,15.08845727,0.0002396,53.2159,212.7709,81.1251,279.0013,0.00031823,4.781e-05,0.0,0 STARLINK-3807,1 52353U 22045Y   23279.52653159  .00004781  00000-0  31823-3 0  9990,2 52353  53.2159 212.7709 0002396  81.1251 279.0013 15.08845727 82156,6917.863,95.437,541.385,538.07,0.0
52353.0,STARLINK-3807,PAYLOAD,2023-10-07 01:21:17,15.08833886,0.0001734,53.2166,210.3953,93.7529,266.3662,0.00013463,1.855e-05,0.0,0 STARLINK-3807,1 52353U 22045Y   23280.05645434  .00001855  00000-0  13463-3 0  9996,2 52353  53.2166 210.3953 0001734  93.7529 266.3662 15.08833886 82232,6917.899,95.438,540.964,538.565,0.0
52353.0,STARLINK-3807,PAYLOAD,2023-10-07 12:28:59,15.08841796,0.000211,53.2155,208.3115,78.8886,281.2344,0.00074402,0.00011573,0.0,0 STARLINK-3807,1 52353U 22045Y   23280.52013731  .00011573  00000-0  74402-3 0  9995,2 52353  53.2155 208.3115 0002110  78.8886 281.2344 15.08841796 82306,6917.875,95.437,541.2,538.28,0.0
52353.0,STARLINK-3807,PAYLOAD,2023-10-07 18:50:32,15.08842746,0.0002181,53.2152,207.1249,78.119,282.0046,0.00063603,9.85e-05,0.0,0 STARLINK-3807,1 52353U 22045Y   23280.78509846  .00009850  00000-0  63603-3 0  9996,2 52353  53.2152 207.1249 0002181  78.1190 282.0046 15.08842746 82345,6917.872,95.437,541.246,538.228,0.0
52353.0,STARLINK-3807,PAYLOAD,2023-10-08 02:47:28,15.08846836,0.0001633,53.216,205.6385,80.755,279.3627,0.00057861,8.934e-05,0.0,0 STARLINK-3807,1 52353U 22045Y   23281.11629639  .00008934  00000-0  57861-3 0  9998,2 52353  53.2160 205.6385 0001633  80.7550 279.3627 15.08846836 82391,6917.859,95.437,540.854,538.595,0.0
52353.0,STARLINK-3807,PAYLOAD,2023-10-08 12:19:46,15.08849184,0.0001612,53.2159,203.8514,90.0141,270.1036,0.00061119,9.455e-05,0.0,0 STARLINK-3807,1 52353U 22045Y   23281.51373490  .00009455  00000-0  61119-3 0  9993,2 52353  53.2159 203.8514 0001612  90.0141 270.1036 15.08849184 82459,6917.852,95.437,540.832,538.602,0.0
52353.0,STARLINK-3807,PAYLOAD,2023-10-09 04:13:37,15.08874835,0.0001391,53.2153,200.8767,104.2262,255.8885,0.0012161,0.00019138,0.0,0 STARLINK-3807,1 52353U 22045Y   23282.17612524  .00019138  00000-0  12161-2 0  9991,2 52353  53.2153 200.8767 0001391 104.2262 255.8885 15.08874835 82550,6917.774,95.435,540.601,538.677,0.0
52353.0,STARLINK-3807,PAYLOAD,2023-10-09 12:10:33,15.08838284,0.000244,53.2154,199.3932,77.2934,282.833,0.00027232,4.048e-05,0.0,0 STARLINK-3807,1 52353U 22045Y   23282.50733557  .00004048  00000-0  27232-3 0  9998,2 52353  53.2154 199.3932 0002440  77.2934 282.8330 15.08838284 82607,6917.886,95.438,541.439,538.063,0.0
52353.0,STARLINK-3807,PAYLOAD,2023-10-09 21:42:52,15.08842538,0.0001496,53.2165,197.6074,88.6505,271.4659,0.00023477,3.451e-05,0.0,0 STARLINK-3807,1 52353U 22045Y   23282.90477194  .00003451  00000-0  23477-3 0  9998,2 52353  53.2165 197.6074 0001496  88.6505 271.4659 15.08842538 82668,6917.873,95.437,540.773,538.703,0.0
52353.0,STARLINK-3807,PAYLOAD,2023-10-10 04:04:24,15.08853724,0.000156,53.2173,196.4146,103.0559,257.0607,0.00082418,0.00012858,0.0,0 STARLINK-3807,1 52353U 22045Y   23283.16972933  .00012858  00000-0  82418-3 0  9999,2 52353  53.2173 196.4146 0001560 103.0559 257.0607 15.08853724 82704,6917.838,95.437,540.783,538.624,0.0
52353.0,STARLINK-3807,PAYLOAD,2023-10-10 18:22:53,15.08841202,0.000126,53.2161,193.74,111.0043,249.1084,0.00079257,0.00012349,0.0,0 STARLINK-3807,1 52353U 22045Y   23283.76589667  .00012349  00000-0  79257-3 0  9995,2 52353  53.2161 193.7400 0001260 111.0043 249.1084 15.08841202 82796,6917.877,95.437,540.613,538.87,0.0
52353.0,STARLINK-3807,PAYLOAD,2023-10-10 21:33:39,15.08837936,0.0001132,53.2167,193.1454,112.2051,247.9061,0.001265,0.00019901,0.0,0 STARLINK-3807,1 52353U 22045Y   23283.89837789  .00019901  00000-0  12650-2 0  9994,2 52353  53.2167 193.1454 0001132 112.2051 247.9061 15.08837936 82818,6917.887,95.438,540.535,538.969,0.0
52353.0,STARLINK-3807,PAYLOAD,2023-10-11 00:44:26,15.08841152,0.0001282,53.217,192.551,102.1302,257.9834,0.0013832,0.00021795,0.0,0 STARLINK-3807,1 52353U 22045Y   23284.03085834  .00021795  00000-0  13832-2 0  9994,2 52353  53.2170 192.5510 0001282 102.1302 257.9834 15.08841152 82837,6917.877,95.437,540.629,538.855,0.0
52353.0,STARLINK-3807,PAYLOAD,2023-10-11 18:13:41,15.0884766,0.0001371,53.2177,189.279,110.8064,249.3075,0.0015354,0.00024237,0.0,0 STARLINK-3807,1 52353U 22045Y   23284.75950243  .00024237  00000-0  15354-2 0  9993,2 52353  53.2177 189.2790 0001371 110.8064 249.3075 15.08847660 82941,6917.857,95.437,540.67,538.774,0.0
52353.0,STARLINK-3807,PAYLOAD,2023-10-12 03:45:59,15.08855986,0.0001283,53.2168,187.4972,91.1428,268.9711,0.0010538,0.0001653,0.0,0 STARLINK-3807,1 52353U 22045Y   23285.15693975  .00016530  00000-0  10538-2 0  9990,2 52353  53.2168 187.4972 0001283  91.1428 268.9711 15.08855986 83002,6917.832,95.437,540.584,538.809,0.0
52353.0,STARLINK-3807,PAYLOAD,2023-10-12 18:04:27,15.08846276,0.0001567,53.2172,184.8188,98.7889,261.3281,0.00066851,0.00010369,0.0,0 STARLINK-3807,1 52353U 22045Y   23285.75310144  .00010369  00000-0  66851-3 0  9994,2 52353  53.2172 184.8188 0001567  98.7889 261.3281 15.08846276 83096,6917.861,95.437,540.81,538.642,0.0
52353.0,STARLINK-3807,PAYLOAD,2023-10-12 22:50:37,15.08847872,0.0001578,53.2175,183.9268,98.3552,261.7619,0.00066031,0.00010239,0.0,0 STARLINK-3807,1 52353U 22045Y   23285.95182100  .00010239  00000-0  66031-3 0  9991,2 52353  53.2175 183.9268 0001578  98.3552 261.7619 15.08847872 83129,6917.856,95.437,540.813,538.63,0.0
52353.0,STARLINK-3807,PAYLOAD,2023-10-13 09:58:19,15.08839618,0.0002062,53.2176,181.8465,88.8478,271.2751,0.00025745,3.812e-05,0.0,0 STARLINK-3807,1 52353U 22045Y   23286.41550400  .00003812  00000-0  25745-3 0  9991,2 52353  53.2176 181.8465 0002062  88.8478 271.2751 15.08839618 83195,6917.882,95.438,541.173,538.32,0.0
52353.0,STARLINK-3807,PAYLOAD,2023-10-13 21:06:01,15.08854684,0.000168,53.2163,179.7641,86.952,273.1665,0.00082596,0.00012887,0.0,0 STARLINK-3807,1 52353U 22045Y   23286.87917997  .00012887  00000-0  82596-3 0  9998,2 52353  53.2163 179.7641 0001680  86.9520 273.1665 15.08854684 83268,6917.836,95.437,540.863,538.538,0.0
52353.0,STARLINK-3807,PAYLOAD,2023-10-14 01:52:10,15.08872272,0.0001324,53.2163,178.8757,99.9881,260.1261,0.0021449,0.00034043,0.0,0 STARLINK-3807,1 52353U 22045Y   23287.07789558  .00034043  00000-0  21449-2 0  9998,2 52353  53.2163 178.8757 0001324  99.9881 260.1261 15.08872272 83299,6917.782,95.436,540.563,538.731,0.0
52353.0,STARLINK-3807,PAYLOAD,2023-10-14 20:56:48,15.08831314,0.0001212,53.2152,175.3062,44.4341,315.6748,0.0010549,0.00016537,0.0,0 STARLINK-3807,1 52353U 22045Y   23287.87278492  .00016537  00000-0  10549-2 0  9993,2 52353  53.2152 175.3062 0001212  44.4341 315.6748 15.08831314 83412,6917.907,95.438,540.61,538.933,0.0
